BEESAT-4                
1 41619U 16040W   21214.43698907  .00001992  00000-0  80691-4 0  9997
2 41619  97.2665 269.2378 0011229 160.0683 200.0996 15.25757592272021
CAS-2T & KS-1Q          
1 41847U 16066G   21214.39322374  .00000138  00000-0  30114-4 0  9991
2 41847  98.5980 273.7050 0366290  83.3115 280.9612 14.38219802248488
NAYIF-1 (EO-88)         
1 42017U 17008BX  21214.45792455  .00002126  00000-0  79441-4 0  9991
2 42017  97.3133 281.2351 0004477 317.2965  42.7926 15.28446175248286
ZHUHAI-1 02 (CAS-4B)    
1 42759U 17034B   21214.60090731  .00000668  00000-0  53365-4 0  9994
2 42759  43.0172 287.3693 0007087  90.2348  52.8290 15.10295472228129
ZHUHAI-1 01 (CAS-4A)    
1 42761U 17034D   21214.92459219  .00000609  00000-0  49741-4 0  9990
2 42761  43.0178 284.6088 0007449  94.6402  74.1590 15.10383313228174
MAX VALIER SAT          
1 42778U 17036P   21214.60279511  .00001445  00000-0  62816-4 0  9997
2 42778  97.2518 261.6959 0012270  22.3089 337.8680 15.23774226228316
RADFXSAT (FOX-1B)       
1 43017U 17073E   21214.45595426  .00000496  00000-0  43117-4 0  9992
2 43017  97.7024 116.6155 0255356 150.0005 211.6122 14.79620822199924
FOX-1D (AO-92)          
1 43137U 18004AC  21214.45022923  .00001563  00000-0  64613-4 0  9997
2 43137  97.4048 288.0118 0010058  56.2456 303.9739 15.25435678197661
DIWATA-2B               
1 43678U 18084H   21214.66889865  .00000350  00000-0  40453-4 0  9993
2 43678  97.9300 340.2002 0008391 255.7541 104.2742 14.91773577150321
ES'HAIL 2               
1 43700U 18090A   21214.71664876  .00000147  00000-0  00000+0 0  9998
2 43700   0.0168  83.3733 0001803  94.9475  56.9493  1.00272093 10076
FOX-1CLIFF (AO-95)      
1 43770U 18099N   21214.42081301  .00000471  00000-0  47775-4 0  9993
2 43770  97.6629 283.5886 0012865 263.2167  96.7590 14.95376776145327
ITASAT 1                
1 43786U 18099AE  21214.13040688  .00000528  00000-0  52545-4 0  9995
2 43786  97.6645 284.0147 0013701 256.2142 103.7554 14.95660067145310
JY1SAT (JO-97)          
1 43803U 18099AX  21214.42103260  .00000578  00000-0  56688-4 0  9990
2 43803  97.6612 284.0458 0013426 255.1710 104.8024 14.95921373145361
UWE-4                   
1 43880U 18111E   21214.70800938  .00000252  00000-0  26989-4 0  9997
2 43880  97.6837 121.6466 0011102 316.1522  43.8817 14.96930890140001
NEXUS (FO-99)           
1 43937U 19003F   21214.35859043  .00001737  00000-0  69931-4 0  9996
2 43937  97.1733 255.6983 0022261 205.4455 154.5690 15.25956098141268
PSAT2 (NO-104)          
1 44354U 19036R   21214.24168757  .00017074  00000-0  22002-3 0  9997
2 44354  28.5252 181.4167 0319252  53.1029 309.8383 15.15227753115926
BRICSAT2 (NO-103)       
1 44355U 19036S   21214.79961853  .00031791 -56764-5  31394-3 0  9996
2 44355  28.5250 124.5882 0249394 145.6310 216.0695 15.33452984116535
JAISAT-1                
1 44419U 19038F   21214.37884645  .00001178  00000-0  68482-4 0  9997
2 44419  97.5913 178.9224 0021732 149.8709 210.3777 15.13898660114745
DUCHIFAT-3              
1 44854U 19089C   21214.60544320  .00000575  00000-0  52273-4 0  9996
2 44854  36.9640 187.6882 0007238 157.3817 202.7245 14.99558171 90031
CAS-6 (TO-108)          
1 44881U 19093C   21214.73363235  .00000117  00000-0  21674-4 0  9992
2 44881  97.9231 293.0566 0016082 138.6988 221.5445 14.81468296 87589
RS-44 & BREEZE-KM R/B   
1 44909U 19096E   21214.36370068 -.00000006  00000-0 -66150-4 0  9994
2 44909  82.5196  82.3092 0217276 346.0844  13.4327 12.79710837 74698
ORBITAL FACTORY 2 (OF-2)
1 45113U 19071C   21214.47093032  .00002337  00000-0  76215-4 0  9990
2 45113  51.6411 174.3352 0012413  98.7226 261.5164 15.36109365 84246
HUSKYSAT-1 (HO-107)     
1 45119U 19071J   21214.28671856  .00003015  00000-0  95133-4 0  9995
2 45119  51.6406 174.5990 0011836  94.8526 265.3808 15.36109783 84212
BY70-2                  
1 45857U 20042B   21214.77699364  .00001388  00000-0  20323-3 0  9991
2 45857  97.9836 290.0453 0012549  70.1561 290.0989 14.77161696 58386
SALSAT                  
1 46495U 20068K   21214.58280433  .00000272  00000-0  24459-4 0  9996
2 46495  97.6930 151.8093 0015778 278.4252  81.5189 15.03493715 46267
BY70-3                  
1 46839U 20079N   21214.90165792  .00003306  00000-0  10270-3 0  9992
2 46839  97.2374 287.8397 0008373  49.8211  66.7613 15.34017154 41324
RADFXSAT-2 (AO-109)     
1 47311U 21002C   21214.15499892  .00001541  00000-0  78043-4 0  9995
2 47311  60.6853 120.0962 0041073  71.6323 288.9224 15.21803936 29827
UVSQ-SAT                
1 47438U 21006AB  21214.14163475  .00000875  00000-0  52863-4 0  9994
2 47438  97.4844 274.5430 0011280 304.5000  55.5165 15.13246654 28962
DIY-1 (ARDUIQUBE)       
1 47963U 21022AH  21214.16604480  .00001303  00000-0  89680-4 0  9997
2 47963  97.5540 115.6886 0020313 144.0066 216.2534 15.07460741 18788
